[{"OBJECT_NAME":"STARLINK-3246","OBJECT_ID":"2021-115J","EPOCH":"2026-03-09T22:27:08.076096","MEAN_MOTION":15.08835579,"ECCENTRICITY":0.00010448,"INCLINATION":53.2176,"RA_OF_ASC_NODE":158.1735,"ARG_OF_PERICENTER":81.0202,"MEAN_ANOMALY":279.0909,"EPHEMERIS_TYPE":0,"CLASSIFICATION_TYPE":"U","NORAD_CAT_ID":49732,"ELEMENT_SET_NO":999,"REV_AT_EPOCH":23542,"BSTAR":4.254229e-6,"MEAN_MOTION_DOT":-2.2e-6,"MEAN_MOTION_DDOT":0},{"OBJECT_NAME":"OBJECT R","OBJECT_ID":"2021-022R","EPOCH":"2026-03-09T22:54:37.456416","MEAN_MOTION":15.08912229,"ECCENTRICITY":0.00182027,"INCLINATION":97.3728,"RA_OF_ASC_NODE":308.5333,"ARG_OF_PERICENTER":149.1845,"MEAN_ANOMALY":211.0456,"EPHEMERIS_TYPE":0,"CLASSIFICATION_TYPE":"U","NORAD_CAT_ID":47947,"ELEMENT_SET_NO":999,"REV_AT_EPOCH":27304,"BSTAR":2.1057411e-5,"MEAN_MOTION_DOT":2.72e-6,"MEAN_MOTION_DDOT":0}]
